ORBCOMM FM115           
1 41186U 15081H   24288.85801565  .00002216  00000+0  47791-3 0  9998
2 41186  46.9963 125.5251 0000596 293.3074  66.7750 14.61428239471876
ORBCOMM FM108           
1 41187U 15081J   24289.14843537  .00002937  00000+0  68039-3 0  9995
2 41187  47.0035 183.4860 0002525 252.6919 107.3690 14.57234608471121
ORBCOMM FM117           
1 41188U 15081K   24288.84039984  .00002558  00000+0  59742-3 0  9995
2 41188  46.9995 183.7828 0003119 267.3237  92.7291 14.57233370471048
ORBCOMM FM116           
1 41189U 15081L   24289.17282789  .00002578  00000+0  60181-3 0  9997
2 41189  47.0008 272.0510 0002574 344.6236  15.4571 14.57235669469973
