<?xml version="1.0" encoding="UTF-8"?>
<ndm xmlns:xsi="http://www.w3.org/2001/XMLSchema-instance" xsi:noNamespaceSchemaLocation="https://sanaregistry.org/r/ndmxml_unqualified/ndmxml-2.0.0-master-2.0.xsd">
<omm id="CCSDS_OMM_VERS" version="2.0">
<header><CREATION_DATE/><ORIGINATOR/></header><body><segment><metadata><OBJECT_NAME>ORBCOMM FM115</OBJECT_NAME><OBJECT_ID>2015-081H</OBJECT_ID><CENTER_NAME>EARTH</CENTER_NAME><REF_FRAME>TEME</REF_FRAME><TIME_SYSTEM>UTC</TIME_SYSTEM><MEAN_ELEMENT_THEORY>SGP4</MEAN_ELEMENT_THEORY></metadata><data><meanElements><EPOCH>2024-10-14T20:35:32.552160</EPOCH><MEAN_MOTION>14.61428239</MEAN_MOTION><ECCENTRICITY>.0000596</ECCENTRICITY><INCLINATION>46.9963</INCLINATION><RA_OF_ASC_NODE>125.5251</RA_OF_ASC_NODE><ARG_OF_PERICENTER>293.3074</ARG_OF_PERICENTER><MEAN_ANOMALY>66.7750</MEAN_ANOMALY></meanElements><tleParameters><EPHEMERIS_TYPE>0</EPHEMERIS_TYPE><CLASSIFICATION_TYPE>U</CLASSIFICATION_TYPE><NORAD_CAT_ID>41186</NORAD_CAT_ID><ELEMENT_SET_NO>999</ELEMENT_SET_NO><REV_AT_EPOCH>47187</REV_AT_EPOCH><BSTAR>.47791E-3</BSTAR><MEAN_MOTION_DOT>.2216E-4</MEAN_MOTION_DOT><MEAN_MOTION_DDOT>0</MEAN_MOTION_DDOT></tleParameters></data></segment></body></omm>
<omm id="CCSDS_OMM_VERS" version="2.0">
<header><CREATION_DATE/><ORIGINATOR/></header><body><segment><metadata><OBJECT_NAME>ORBCOMM FM108</OBJECT_NAME><OBJECT_ID>2015-081J</OBJECT_ID><CENTER_NAME>EARTH</CENTER_NAME><REF_FRAME>TEME</REF_FRAME><TIME_SYSTEM>UTC</TIME_SYSTEM><MEAN_ELEMENT_THEORY>SGP4</MEAN_ELEMENT_THEORY></metadata><data><meanElements><EPOCH>2024-10-15T03:33:44.815968</EPOCH><MEAN_MOTION>14.57234608</MEAN_MOTION><ECCENTRICITY>.0002525</ECCENTRICITY><INCLINATION>47.0035</INCLINATION><RA_OF_ASC_NODE>183.4860</RA_OF_ASC_NODE><ARG_OF_PERICENTER>252.6919</ARG_OF_PERICENTER><MEAN_ANOMALY>107.3690</MEAN_ANOMALY></meanElements><tleParameters><EPHEMERIS_TYPE>0</EPHEMERIS_TYPE><CLASSIFICATION_TYPE>U</CLASSIFICATION_TYPE><NORAD_CAT_ID>41187</NORAD_CAT_ID><ELEMENT_SET_NO>999</ELEMENT_SET_NO><REV_AT_EPOCH>47112</REV_AT_EPOCH><BSTAR>.68039E-3</BSTAR><MEAN_MOTION_DOT>.2937E-4</MEAN_MOTION_DOT><MEAN_MOTION_DDOT>0</MEAN_MOTION_DDOT></tleParameters></data></segment></body></omm>
<omm id="CCSDS_OMM_VERS" version="2.0">
<header><CREATION_DATE/><ORIGINATOR/></header><body><segment><metadata><OBJECT_NAME>ORBCOMM FM117</OBJECT_NAME><OBJECT_ID>2015-081K</OBJECT_ID><CENTER_NAME>EARTH</CENTER_NAME><REF_FRAME>TEME</REF_FRAME><TIME_SYSTEM>UTC</TIME_SYSTEM><MEAN_ELEMENT_THEORY>SGP4</MEAN_ELEMENT_THEORY></metadata><data><meanElements><EPOCH>2024-10-14T20:10:10.546176</EPOCH><MEAN_MOTION>14.57233370</MEAN_MOTION><ECCENTRICITY>.0003119</ECCENTRICITY><INCLINATION>46.9995</INCLINATION><RA_OF_ASC_NODE>183.7828</RA_OF_ASC_NODE><ARG_OF_PERICENTER>267.3237</ARG_OF_PERICENTER><MEAN_ANOMALY>92.7291</MEAN_ANOMALY></meanElements><tleParameters><EPHEMERIS_TYPE>0</EPHEMERIS_TYPE><CLASSIFICATION_TYPE>U</CLASSIFICATION_TYPE><NORAD_CAT_ID>41188</NORAD_CAT_ID><ELEMENT_SET_NO>999</ELEMENT_SET_NO><REV_AT_EPOCH>47104</REV_AT_EPOCH><BSTAR>.59742E-3</BSTAR><MEAN_MOTION_DOT>.2558E-4</MEAN_MOTION_DOT><MEAN_MOTION_DDOT>0</MEAN_MOTION_DDOT></tleParameters></data></segment></body></omm>
<omm id="CCSDS_OMM_VERS" version="2.0">
<header><CREATION_DATE/><ORIGINATOR/></header><body><segment><metadata><OBJECT_NAME>ORBCOMM FM116</OBJECT_NAME><OBJECT_ID>2015-081L</OBJECT_ID><CENTER_NAME>EARTH</CENTER_NAME><REF_FRAME>TEME</REF_FRAME><TIME_SYSTEM>UTC</TIME_SYSTEM><MEAN_ELEMENT_THEORY>SGP4</MEAN_ELEMENT_THEORY></metadata><data><meanElements><EPOCH>2024-10-15T04:08:52.329696</EPOCH><MEAN_MOTION>14.57235669</MEAN_MOTION><ECCENTRICITY>.0002574</ECCENTRICITY><INCLINATION>47.0008</INCLINATION><RA_OF_ASC_NODE>272.0510</RA_OF_ASC_NODE><ARG_OF_PERICENTER>344.6236</ARG_OF_PERICENTER><MEAN_ANOMALY>15.4571</MEAN_ANOMALY></meanElements><tleParameters><EPHEMERIS_TYPE>0</EPHEMERIS_TYPE><CLASSIFICATION_TYPE>U</CLASSIFICATION_TYPE><NORAD_CAT_ID>41189</NORAD_CAT_ID><ELEMENT_SET_NO>999</ELEMENT_SET_NO><REV_AT_EPOCH>46997</REV_AT_EPOCH><BSTAR>.60181E-3</BSTAR><MEAN_MOTION_DOT>.2578E-4</MEAN_MOTION_DOT><MEAN_MOTION_DDOT>0</MEAN_MOTION_DDOT></tleParameters></data></segment></body></omm>
</ndm>
